[Satellite]
VERSION=1.1
NAME=STARLINK-1235
NICKNAME=STARLINK-1235
TLE1=1 45232U 20012BG  20078.25001157  .01431070  00000-0  58791-2 0  9997
TLE2=2 45232  52.9963 119.0265 0006331 187.3905 220.5837 15.82809483  5024
STATUS=0
